GLOBALSTAR M035         
1 25851U 99037A   24167.35203019 -.00000057  00000+0  25534-3 0  9996
2 25851  51.9918 153.0350 0013032 107.3641  42.7070 11.04531050 55723
GLOBALSTAR M032         
1 25852U 99037B   24167.56882152 -.00000025  00000+0  13328-2 0  9993
2 25852  51.9979   3.0466 0009257 269.6567  90.3172 11.19055316 93744
GLOBALSTAR M051         
1 25853U 99037C   24167.46310509 -.00000057  00000+0  35697-3 0  9994
2 25853  51.9761 205.5635 0001553 269.4912  90.5720 11.42199254 90489
GLOBALSTAR M030         
1 25854U 99037D   24167.34875751 -.00000048  00000+0  56300-3 0  9991
2 25854  51.9900  35.2704 0004359 105.4002 254.7296 11.55096148107658
GLOBALSTAR M048         
1 25872U 99041A   24167.21459440 -.00000054  00000+0  43018-3 0  9994
2 25872  51.9346 127.0048 0013629 271.3851 191.2417 11.33846879 83358
GLOBALSTAR M026         
1 25873U 99041B   24167.59430622 -.00000063  00000+0  43240-4 0  9995
2 25873  52.0017 274.3139 0000985  12.0005 120.3216 11.06834096107899
GLOBALSTAR M043         
1 25874U 99041C   24167.56126050 -.00000060  00000+0  25827-3 0  9997
2 25874  51.9374 219.2171 0011964  46.3918 124.4538 11.25679697 81584
GLOBALSTAR M028         
1 25875U 99041D   24167.53747429 -.00000092  00000+0  56167-4 0  9991
2 25875  51.9601 206.3295 0063207 355.2170   4.8081 12.50557799144302
